#dP2024 10  2 12  0  0.00000000      96 __u+U IGS20 EXT  IAC
## 2334 302400.00000000   900.00000000 60585 0.5000000000000
+   53   G02G03G04G05G06G07G08G09G10G11G12G13G14G15G16G17G18
+        G19G20G21G22G23G24G25G26G27G28G29G30G31G32R01R02R03
+        R04R05R07R08R09R11R12R14R15R16R17R18R19R20R21R22R24
+        R25R26  0  0  0  0  0  0  0  0  0  0  0  0  0  0  0
+          0  0  0  0  0  0  0  0  0  0  0  0  0  0  0  0  0
++         7  7  7  8  7  7  6  7  6  8  8  7  7  8  7  7  8
++         8  8  8  7  7  7  8  6  7  7  7  7  9  8  8  7  8
++         8  9  9  8  8  8  9  8  8  7  7  8  9  8  7  8  8
++         7  9  0  0  0  0  0  0  0  0  0  0  0  0  0  0  0
++         0  0  0  0  0  0  0  0  0  0  0  0  0  0  0  0  0
%c M  cc GPS ccc cccc cccc cccc cccc ccccc ccccc ccccc ccccc
%c cc cc ccc ccc cccc cccc cccc cccc ccccc ccccc ccccc ccccc
%f  0.0000000  0.000000000  0.00000000000  0.000000000000000
%f  0.0000000  0.000000000  0.00000000000  0.000000000000000
%i    0    0    0    0      0      0      0      0         0
%i    0    0    0    0      0      0      0      0         0
/* IAC                                ULTRA-RAPID PREDICTION
/* S/V CLOCKS ARE ALIGNED TO GNSS TIME                      
/* G:C1WC2W R:C1PC2P E:C1XC5X C:C2IC6I J:C1CC2S             
/* PCV:IGS20_2317 OL/AL:FES2004  NONE     YN ORB:CoN CLK:CoN
*  2024 10 02 17 30  0.00000000
PG02 -15191.920657   2254.017034  22154.551280   -345.626196
PG03 -22403.061019  11819.696029   7634.827330    557.541341
PG04 -22210.070024   1730.577765 -14559.634295    454.523298
PG05  18037.215569   1638.139486 -19632.529114   -188.515489
PG06   5062.875131  25954.498074  -1686.380943    -10.133321
PG07  -7778.690237  19615.108966 -15317.546065    -31.472908
PG08 -25883.385177  -5846.797563   3625.041088    371.895923
PG09 -13867.508611  10283.600015 -20292.507314    381.575845
PG10   3719.351667 -18847.824128  18401.171124   -144.826014
PG11  12611.916260  17934.751040 -15007.907588   -740.530079
PG12  23066.813652  -7623.132330  10399.033468   -542.323358
PG13  22482.247403  14203.227179  -2514.430211    679.516555
PG14  -7585.149163  20184.833841  15403.147188    508.742063
PG15  26213.684001   2763.581889   3384.559867    211.103814
PG16 -15237.076971  -7256.953478 -20947.682137   -165.368899
PG17   2560.011016  16813.418603  20774.403240    608.572470
PG18   7329.910995 -20421.752238 -15140.118812   -656.357679
PG19  12165.693179  17967.961339  15450.965444    545.554391
PG20  10397.520279  11335.006444 -21588.038837    370.055418
PG21 -16439.631044  -5121.565208  20877.792216    100.586601
PG22   -461.266514  17604.339910  20377.181832    -67.456089
PG23  15164.926800 -20213.292170   7823.331534    333.057394
PG24  15969.449367     97.119940  20818.197370   -485.825554
PG25  19815.863174 -17467.884564   -444.641943    499.603475
PG26  -5551.686745 -15993.930772 -20552.200601     65.340397
PG27 -22403.425120 -13166.370083  -6785.457008    -34.269531
PG28  -4824.579965 -26109.777598    612.475175   -432.181944
PG29  16515.079777  -7204.039697 -19599.143165   -574.001303
PG30   -820.720973  25451.288517  -6894.095209   -310.116021
PG31 -11210.264806 -21134.986650 -11350.609185   -223.938263
PG32  -5510.728872 -16839.439176  20064.423406   -591.175604
PR01  -2793.740976 -10780.732709  22941.358938     99.715274
PR02 -19267.957543  -7132.796407  15204.818249    -24.955251
PR03 -25494.886116    803.850533  -1318.113391    108.679533
PR04 -17697.890395   7648.309092 -16691.613484    257.459987
PR05   -535.899906  10683.547130 -23152.702033    138.537384
PR07  25379.994096  -1081.711665   1983.638762     92.098260
PR08  17342.098444  -8022.217414  16928.392442     -6.414999
PR09   6980.061244  10417.975273  22221.066391    212.430745
PR11  14844.285060 -19250.852309   7770.970184     10.306710
PR12   5870.816119 -21906.770475 -11636.892558     45.542283
PR14 -14595.197457   6589.584226 -19834.097961     27.005192
PR15 -14560.373576  20048.470494  -6023.428329     75.269134
PR16  -5939.987456  21932.306434  11565.990304     29.627624
PR17 -13977.254969  -5216.494653  20687.616142    127.219929
PR18  -5765.391172  10554.148758  22508.914347    164.950603
PR19   3563.692489  20766.770229  14392.786687   -293.458334
PR20  13818.659763  20447.569138  -6380.317289   -119.896189
PR21  14131.800265   6232.723538 -20307.701109   -139.428208
PR22   5555.667136 -11710.204833 -21940.935557     31.978057
PR24 -15024.099330 -19424.680668   6872.261672    -74.410137
PR25  13930.133222   5318.666718 -20695.807541    -95.634756
PR26  18636.464558  -7571.872779  15709.361549     55.432150
*  2024 10 02 17 45  0.00000000
PG02 -15857.388103    -63.000481  21822.140099   -345.618906
PG03 -21732.004835  10996.001244  10295.021793    557.552563
PG04 -23581.992008   1021.924023 -12309.263981    454.529524
PG05  16466.957820   3280.464667 -20777.936047   -188.516663
PG06   4891.929734  26020.212267   1232.559646    -10.157566
PG07  -8387.474046  17730.845240 -17163.431563    -31.469460
PG08 -26066.454383  -6160.671018    829.664294    371.906831
PG09 -15971.186970   9526.115087 -19079.035632    381.590491
PG10   5281.916558 -20056.693146  16604.745443   -144.837683
PG11  12676.359034  19536.413454 -12802.592331   -740.533207
PG12  22117.834743  -6611.752004  12812.456497   -542.325844
PG13  22017.397823  14193.321914  -5332.237370    679.518239
PG14  -8995.164482  21067.619427  13292.623413    508.749662
PG15  26441.055476   3120.649827    599.909886    211.107755
PG16 -13365.795212  -8692.886755 -21638.668438   -165.359801
PG17    365.355285  16001.206926  21586.891028    608.561432
PG18   7820.746607 -18627.016302 -17100.078519   -656.359254
PG19  10393.550294  17312.503277  17321.487645    545.558682
PG20   8847.063158  13249.865810 -21199.750818    370.055069
PG21 -17039.187554  -7260.857653  19804.769103    100.585894
PG22  -2265.324504  18819.462555  19132.837980    -67.459263
PG23  15842.413380 -20565.559031   5041.557790    333.064814
PG24  16629.507745   2449.602254  20198.320295   -485.824791
PG25  19914.229399 -17139.559448   2401.596599    499.603458
PG26  -3880.371681 -17556.267286 -19597.400216     65.332261
PG27 -21502.921668 -13087.674978  -9413.308599    -34.269856
PG28  -4525.768868 -25939.474889   3458.117780   -432.193911
PG29  18449.355470  -6268.580273 -18149.281778   -573.998993
PG30  -1330.588759  24568.766045  -9496.779476   -310.109466
PG31 -11152.809828 -22299.360451  -8814.818390   -223.937787
PG32  -3296.807776 -16200.010979  21045.147640   -591.171911
PR01     37.352426 -10974.052198  23020.130369     99.716426
PR02 -17257.119064  -7065.827147  17480.105573    -24.955398
PR03 -25457.557477    969.974662   1896.657934    108.680184
PR04 -19610.081726   7838.567714 -14299.941099    257.461657
PR05  -3377.019477  10775.691650 -22870.687970    138.537907
PR07  25415.517944  -1242.842362  -1239.457803     92.098824
PR08  19272.342046  -8215.982037  14573.810035     -6.414976
PR09   5841.764461  12841.274803  21252.408057    212.432705
PR11  14205.802587 -18298.772273  10710.967327     10.305893
PR12   6345.709539 -23083.084627  -8765.061666     45.542718
PR14 -13403.708138   4348.987536 -21243.601620     27.005256
PR15 -14022.831416  19276.294051  -9049.596995     75.268790
PR16  -6387.824306  23105.945418   8675.896942     29.628064
PR17 -15354.247060  -7247.068692  19028.234293    127.223003
PR18  -7191.895305   8129.169953  23100.601337    164.952240
PR19   2759.932641  19008.551552  16797.239673   -293.459541
PR20  14295.372075  20861.687047  -3202.828221   -119.896325
PR21  15476.818016   8223.330318 -18545.664577   -139.431144
PR22   6901.443557  -9298.453873 -22699.078449     31.968873
PR24 -15493.794306 -19900.861855   3743.201039    -74.411521
PR25  15213.762790   7413.538274 -19088.165728    -95.631785
PR26  20410.343846  -7781.462405  13201.233290     55.453075
EOF
